{
"type": "FeatureCollection",
"crs": { "type": "name", "properties": { "name": "urn:ogc:def:crs:OGC:1.3:CRS84" } },
"features": [
{ "type": "Feature", "properties": { "id": 0, "name_fi": "Kivenlahden terveysasema", "name_en": "Kivenlahti Health Centre", "facility_type": "health-station", "postal_code": "02320", "city": "Espoo", "physician_cnt": 13 }, "geometry": { "type": "Point", "coordinates": [ 24.635641449749343, 60.154814371695686 ] } },
{ "type": "Feature", "properties": { "id": 1, "name_fi": "Samarian terveysasema", "name_en": "Samaria Health Centre", "facility_type": "health-station", "postal_code": "02770", "city": "Espoo", "physician_cnt": 42 }, "geometry": { "type": "Point", "coordinates": [ 24.653416399690411, 60.202469991236789 ] } },
{ "type": "Feature", "properties": { "id": 2, "name_fi": "Espoonlahden terveysasema", "name_en": "Espoonlahti Health Centre", "facility_type": "health-station", "postal_code": "02320", "city": "Espoo", "physician_cnt": 13 }, "geometry": { "type": "Point", "coordinates": [ 24.660702511624137, 60.148800742428342 ] } },
{ "type": "Feature", "properties": { "id": 3, "name_fi": "Soukan terveysasema", "name_en": "Soukka Health Center", "facility_type": "health-station", "postal_code": "02360", "city": "Espoo", "physician_cnt": 7 }, "geometry": { "type": "Point", "coordinates": [ 24.671326777428174, 60.140220776922071 ] } },
{ "type": "Feature", "properties": { "id": 4, "name_fi": "Espoon sairaala", "name_en": "Espoo Hospital", "facility_type": "city-hospital", "postal_code": "02740", "city": "Espoo", "physician_cnt": 366 }, "geometry": { "type": "Point", "coordinates": [ 24.685348064642838, 60.222074642639463 ] } },
{ "type": "Feature", "properties": { "id": 5, "name_fi": "Jorvin sairaala", "name_en": null, "facility_type": "university-hospital", "postal_code": "02740", "city": "Espoo", "physician_cnt": 1007 }, "geometry": { "type": "Point", "coordinates": [ 24.689141170987192, 60.223083967180585 ] } },
{ "type": "Feature", "properties": { "id": 6, "name_fi": "Kauniaisten terveysasema", "name_en": "Kauniainen Health Centre", "facility_type": "health-station", "postal_code": "02700", "city": "Kauniainen", "physician_cnt": 9 }, "geometry": { "type": "Point", "coordinates": [ 24.716194465269584, 60.214471183282427 ] } },
{ "type": "Feature", "properties": { "id": 7, "name_fi": "Piispanportin terveysasema", "name_en": "Piispanportti health centre", "facility_type": "health-station", "postal_code": "02200", "city": "Espoo", "physician_cnt": 11 }, "geometry": { "type": "Point", "coordinates": [ 24.735756585488129, 60.16429776856814 ] } },
{ "type": "Feature", "properties": { "id": 8, "name_fi": "Kalajärven terveysasema", "name_en": "Kalajärvi Health Centre", "facility_type": "health-station", "postal_code": "02970", "city": "Espoo", "physician_cnt": 3 }, "geometry": { "type": "Point", "coordinates": [ 24.739123572624216, 60.30588333580414 ] } },
{ "type": "Feature", "properties": { "id": 9, "name_fi": "Ison Omenan terveysasema", "name_en": "Iso Omena Health Centre", "facility_type": "health-station", "postal_code": "02230", "city": "Espoo", "physician_cnt": 14 }, "geometry": { "type": "Point", "coordinates": [ 24.739824106840967, 60.16045083003327 ] } },
{ "type": "Feature", "properties": { "id": 10, "name_fi": "Matinkadun terveysasema", "name_en": "Matinkatu health centre", "facility_type": "health-station", "postal_code": "02230", "city": "Espoo", "physician_cnt": 14 }, "geometry": { "type": "Point", "coordinates": [ 24.748174465636929, 60.159838515106266 ] } },
{ "type": "Feature", "properties": { "id": 11, "name_fi": "Kilon terveysasema", "name_en": "Kilo Health Centre", "facility_type": "health-station", "postal_code": "02610", "city": "Espoo", "physician_cnt": 12 }, "geometry": { "type": "Point", "coordinates": [ 24.785982589304957, 60.217981142388687 ] } },
{ "type": "Feature", "properties": { "id": 12, "name_fi": "Tapiolan terveysasema", "name_en": "Tapiola Health Centre", "facility_type": "health-station", "postal_code": "02100", "city": "Espoo", "physician_cnt": 24 }, "geometry": { "type": "Point", "coordinates": [ 24.797804194196001, 60.178467010877974 ] } },
{ "type": "Feature", "properties": { "id": 13, "name_fi": "Leppävaaran terveysasema", "name_en": "Leppävaara Health Centre", "facility_type": "health-station", "postal_code": "02650", "city": "Espoo", "physician_cnt": 24 }, "geometry": { "type": "Point", "coordinates": [ 24.8139690743625, 60.221732915494634 ] } },
{ "type": "Feature", "properties": { "id": 14, "name_fi": "Martinlaakson terveysasema", "name_en": "Martinlaakso health center", "facility_type": "health-station", "postal_code": "01620", "city": "Vantaa", "physician_cnt": 29 }, "geometry": { "type": "Point", "coordinates": [ 24.851527588908084, 60.277676516729578 ] } },
{ "type": "Feature", "properties": { "id": 15, "name_fi": "Lännen terveysasema/Pitäjänmäki", "name_en": "Pitäjänmäki Health Station", "facility_type": "health-station", "postal_code": "00370", "city": "Helsinki", "physician_cnt": 8 }, "geometry": { "type": "Point", "coordinates": [ 24.853887638559765, 60.226193264824502 ] } },
{ "type": "Feature", "properties": { "id": 16, "name_fi": "Myyrmäen terveysasema", "name_en": "Myyrmäki health center", "facility_type": "health-station", "postal_code": "01600", "city": "Vantaa", "physician_cnt": 46 }, "geometry": { "type": "Point", "coordinates": [ 24.856083822602965, 60.260845866108255 ] } },
{ "type": "Feature", "properties": { "id": 17, "name_fi": "Lännen terveysasema/Malminkartano", "name_en": "Malminkartano Health Station", "facility_type": "health-station", "postal_code": "00410", "city": "Helsinki", "physician_cnt": 5 }, "geometry": { "type": "Point", "coordinates": [ 24.864177313136683, 60.247054109282331 ] } },
{ "type": "Feature", "properties": { "id": 18, "name_fi": "Katriinan sairaala", "name_en": null, "facility_type": "city-hospital", "postal_code": "01760", "city": "Vantaa", "physician_cnt": 35 }, "geometry": { "type": "Point", "coordinates": [ 24.872919010351985, 60.346508560553893 ] } },
{ "type": "Feature", "properties": { "id": 19, "name_fi": "Lännen terveysasema/Munkkiniemi", "name_en": "Munkkiniemi Health Station", "facility_type": "health-station", "postal_code": "00330", "city": "Helsinki", "physician_cnt": 10 }, "geometry": { "type": "Point", "coordinates": [ 24.876303187726165, 60.201547884119044 ] } },
{ "type": "Feature", "properties": { "id": 20, "name_fi": "Keskustan terveysasema/Lauttasaari", "name_en": "Lauttasaari Health Station", "facility_type": "health-station", "postal_code": "00200", "city": "Helsinki", "physician_cnt": 13 }, "geometry": { "type": "Point", "coordinates": [ 24.882812378704958, 60.16101690874202 ] } },
{ "type": "Feature", "properties": { "id": 21, "name_fi": "Lännen terveysasema/Kannelmäki", "name_en": "Kannelmäki Health Station", "facility_type": "health-station", "postal_code": "00420", "city": "Helsinki", "physician_cnt": 16 }, "geometry": { "type": "Point", "coordinates": [ 24.890055746236548, 60.237740558246671 ] } },
{ "type": "Feature", "properties": { "id": 22, "name_fi": "Keskustan terveysasema/Ruoholahti", "name_en": "Ruoholahti Health Station", "facility_type": "health-station", "postal_code": "00180", "city": "Helsinki", "physician_cnt": 34 }, "geometry": { "type": "Point", "coordinates": [ 24.902637410220301, 60.162419105185784 ] } },
{ "type": "Feature", "properties": { "id": 23, "name_fi": "Lännen terveysasema/Haaga", "name_en": "Haaga Health Station", "facility_type": "health-station", "postal_code": "00400", "city": "Helsinki", "physician_cnt": 11 }, "geometry": { "type": "Point", "coordinates": [ 24.904142238333343, 60.222245331178655 ] } },
{ "type": "Feature", "properties": { "id": 24, "name_fi": "Meilahden tornisairaala; Meilahden kolmiosairaala; Haartmanin sairaala; Siltasairaala", "name_en": "Meilahti Tower Hospital; Meilahti Triangle Hospital; Haartman Hospital; Meilahti Bridge Hospital", "facility_type": "university-hospital", "postal_code": "00290", "city": "Helsinki", "physician_cnt": 1426 }, "geometry": { "type": "Point", "coordinates": [ 24.90795385274852, 60.190482241713674 ] } },
{ "type": "Feature", "properties": { "id": 25, "name_fi": "Laakson sairaala", "name_en": "Laakso Hospital", "facility_type": "city-hospital", "postal_code": "00250", "city": "Helsinki", "physician_cnt": 473 }, "geometry": { "type": "Point", "coordinates": [ 24.917477159115617, 60.193057343971795 ] } },
{ "type": "Feature", "properties": { "id": 26, "name_fi": "Keskustan terveysasema/Kivelä", "name_en": "Kivelä Health Station", "facility_type": "health-station", "postal_code": "00260", "city": "Helsinki", "physician_cnt": 29 }, "geometry": { "type": "Point", "coordinates": [ 24.918315961241195, 60.180953796306312 ] } },
{ "type": "Feature", "properties": { "id": 27, "name_fi": "Pohjoisen terveysasema/Maunula; Suursuon sairaala", "name_en": "Maunula Health Station; Suursuo Hospital", "facility_type": "health-station; city-hospital", "postal_code": "00630", "city": "Helsinki", "physician_cnt": 52 }, "geometry": { "type": "Point", "coordinates": [ 24.933015927565631, 60.234815023847382 ] } },
{ "type": "Feature", "properties": { "id": 28, "name_fi": "Keskustan terveysasema/Viiskulma", "name_en": "Viiskulma Health Station", "facility_type": "health-station", "postal_code": "00150", "city": "Helsinki", "physician_cnt": 10 }, "geometry": { "type": "Point", "coordinates": [ 24.940793045173638, 60.160089564163066 ] } },
{ "type": "Feature", "properties": { "id": 29, "name_fi": "Pohjoisen terveysasema/Paloheinä", "name_en": "Paloheinä Health Station", "facility_type": "health-station", "postal_code": "00670", "city": "Helsinki", "physician_cnt": 5 }, "geometry": { "type": "Point", "coordinates": [ 24.941352175565971, 60.249055156024482 ] } },
{ "type": "Feature", "properties": { "id": 30, "name_fi": "Pohjoisen terveysasema/Oulunkylä", "name_en": "Oulunkylä Health Station", "facility_type": "health-station", "postal_code": "00640", "city": "Helsinki", "physician_cnt": 16 }, "geometry": { "type": "Point", "coordinates": [ 24.963798176160033, 60.227764249762849 ] } },
{ "type": "Feature", "properties": { "id": 31, "name_fi": "Keskisen terveysasema/Kalasatama", "name_en": "Kalasatama Health Station", "facility_type": "health-station", "postal_code": "00580", "city": "Helsinki", "physician_cnt": 15 }, "geometry": { "type": "Point", "coordinates": [ 24.980521366998648, 60.187826321509753 ] } },
{ "type": "Feature", "properties": { "id": 32, "name_fi": "Koillisen terveysasema/Suutarila", "name_en": "Suutarila Health Station", "facility_type": "health-station", "postal_code": "00740", "city": "Helsinki", "physician_cnt": 8 }, "geometry": { "type": "Point", "coordinates": [ 24.998420930144487, 60.275633699763247 ] } },
{ "type": "Feature", "properties": { "id": 33, "name_fi": "Koillisen terveysasema/Malmi; Malmin sairaala", "name_en": "Malmi Health Station; Malmi Hospital", "facility_type": "health-station; city-hospital", "postal_code": "00700", "city": "Helsinki", "physician_cnt": 119 }, "geometry": { "type": "Point", "coordinates": [ 24.998795448958131, 60.253813855042111 ] } },
{ "type": "Feature", "properties": { "id": 34, "name_fi": "Malmin sairaala", "name_en": "Malmi Hospital", "facility_type": "university-hospital", "postal_code": "00700", "city": "Helsinki", "physician_cnt": 120 }, "geometry": { "type": "Point", "coordinates": [ 24.999921461809617, 60.254315838826372 ] } },
{ "type": "Feature", "properties": { "id": 35, "name_fi": "Pohjoisen terveysasema/Pihlajamäki", "name_en": "Pihlajamäki Health Station", "facility_type": "health-station", "postal_code": "00710", "city": "Helsinki", "physician_cnt": 6 }, "geometry": { "type": "Point", "coordinates": [ 25.009506208687927, 60.234269109739877 ] } },
{ "type": "Feature", "properties": { "id": 36, "name_fi": "Koillisen terveysasema/Puistola", "name_en": "Puistola Health Station", "facility_type": "health-station", "postal_code": "00750", "city": "Helsinki", "physician_cnt": 9 }, "geometry": { "type": "Point", "coordinates": [ 25.034490381671681, 60.274879132159079 ] } },
{ "type": "Feature", "properties": { "id": 37, "name_fi": "Tikkurilan terveysasema", "name_en": "Tikkurila health center", "facility_type": "health-station", "postal_code": "01300", "city": "Vantaa", "physician_cnt": 84 }, "geometry": { "type": "Point", "coordinates": [ 25.037659647372497, 60.292610682248146 ] } },
{ "type": "Feature", "properties": { "id": 38, "name_fi": "Keskisen terveysasema/Laajasalo", "name_en": "Laajasalo Health Station", "facility_type": "health-station", "postal_code": "00840", "city": "Helsinki", "physician_cnt": 7 }, "geometry": { "type": "Point", "coordinates": [ 25.055822001486248, 60.178677185762098 ] } },
{ "type": "Feature", "properties": { "id": 39, "name_fi": "Koivukylän terveysasema", "name_en": "Koivukylä health center", "facility_type": "health-station", "postal_code": "01360", "city": "Vantaa", "physician_cnt": 22 }, "geometry": { "type": "Point", "coordinates": [ 25.059630204428185, 60.319689206539564 ] } },
{ "type": "Feature", "properties": { "id": 40, "name_fi": "Peijaksen sairaala", "name_en": null, "facility_type": "city-hospital", "postal_code": "01400", "city": "Vantaa", "physician_cnt": 87 }, "geometry": { "type": "Point", "coordinates": [ 25.060327529318791, 60.331438127891211 ] } },
{ "type": "Feature", "properties": { "id": 41, "name_fi": "Peijaksen sairaala", "name_en": "​Peijas Hospital", "facility_type": "university-hospital", "postal_code": "01400", "city": "Vantaa", "physician_cnt": 478 }, "geometry": { "type": "Point", "coordinates": [ 25.061179270386194, 60.330211114243575 ] } },
{ "type": "Feature", "properties": { "id": 42, "name_fi": "Idän terveysasema/Kivikko", "name_en": "Kivikko Health Station", "facility_type": "health-station", "postal_code": "00940", "city": "Helsinki", "physician_cnt": 12 }, "geometry": { "type": "Point", "coordinates": [ 25.066421367226923, 60.236969934381769 ] } },
{ "type": "Feature", "properties": { "id": 43, "name_fi": "Koillisen terveysasema/Jakomäki", "name_en": "Jakomäki Health Station", "facility_type": "health-station", "postal_code": "00770", "city": "Helsinki", "physician_cnt": 6 }, "geometry": { "type": "Point", "coordinates": [ 25.075229325533289, 60.260171452344686 ] } },
{ "type": "Feature", "properties": { "id": 44, "name_fi": "Idän terveysasema/Myllypuro", "name_en": "Myllypuro Health Station", "facility_type": "health-station", "postal_code": "00920", "city": "Helsinki", "physician_cnt": 21 }, "geometry": { "type": "Point", "coordinates": [ 25.076681766023562, 60.225865223182211 ] } },
{ "type": "Feature", "properties": { "id": 45, "name_fi": "Korson terveysasema", "name_en": "Korso health center", "facility_type": "health-station", "postal_code": "01450", "city": "Vantaa", "physician_cnt": 23 }, "geometry": { "type": "Point", "coordinates": [ 25.078662715264329, 60.349568319915669 ] } },
{ "type": "Feature", "properties": { "id": 46, "name_fi": "Idän terveysasema/Kontula", "name_en": "Kontula Health Station", "facility_type": "health-station", "postal_code": "00940", "city": "Helsinki", "physician_cnt": 12 }, "geometry": { "type": "Point", "coordinates": [ 25.08407751265916, 60.237746976928591 ] } },
{ "type": "Feature", "properties": { "id": 47, "name_fi": "Hakunilan terveysasema", "name_en": "Hakunila health center", "facility_type": "health-station", "postal_code": "01200", "city": "Vantaa", "physician_cnt": 11 }, "geometry": { "type": "Point", "coordinates": [ 25.104578760820022, 60.278700225217513 ] } },
{ "type": "Feature", "properties": { "id": 48, "name_fi": "Länsimäen terveysasema", "name_en": "Länsimäki health center", "facility_type": "health-station", "postal_code": "01280", "city": "Vantaa", "physician_cnt": 6 }, "geometry": { "type": "Point", "coordinates": [ 25.112591361412417, 60.241649388125744 ] } },
{ "type": "Feature", "properties": { "id": 49, "name_fi": "Idän terveysasema/Vuosaari", "name_en": "Vuosaari Health Station", "facility_type": "health-station", "postal_code": "00980", "city": "Helsinki", "physician_cnt": 17 }, "geometry": { "type": "Point", "coordinates": [ 25.146486523670802, 60.20606707199714 ] } }
]
}
